[{"OBJECT_NAME":"STARLINK-31420","OBJECT_ID":"2024-046Y","EPOCH":"2026-03-09T11:26:24.936000","MEAN_MOTION":15.30182009,"ECCENTRICITY":0.00013933,"INCLINATION":53.1591,"RA_OF_ASC_NODE":156.5581,"ARG_OF_PERICENTER":29.2244,"MEAN_ANOMALY":330.8835,"EPHEMERIS_TYPE":0,"CLASSIFICATION_TYPE":"U","NORAD_CAT_ID":59223,"ELEMENT_SET_NO":999,"REV_AT_EPOCH":11300,"BSTAR":2.0839412e-5,"MEAN_MOTION_DOT":2.58e-6,"MEAN_MOTION_DDOT":0},{"OBJECT_NAME":"CZ-4C R\/B","OBJECT_ID":"2021-079B","EPOCH":"2026-03-09T14:04:29.438112","MEAN_MOTION":15.08928015,"ECCENTRICITY":0.0108377,"INCLINATION":98.3883,"RA_OF_ASC_NODE":282.6111,"ARG_OF_PERICENTER":26.1585,"MEAN_ANOMALY":334.506,"EPHEMERIS_TYPE":0,"CLASSIFICATION_TYPE":"U","NORAD_CAT_ID":49123,"ELEMENT_SET_NO":999,"REV_AT_EPOCH":24640,"BSTAR":0.00023549,"MEAN_MOTION_DOT":4.178e-5,"MEAN_MOTION_DDOT":0}]
